NORAD_CAT_ID,OBJECT_NAME,OBJECT_TYPE,EPOCH,MEAN_MOTION,ECCENTRICITY,INCLINATION,RA_OF_ASC_NODE,ARG_OF_PERICENTER,MEAN_ANOMALY,BSTAR,MEAN_MOTION_DOT,MEAN_MOTION_DDOT,TLE_LINE0,TLE_LINE1,TLE_LINE2,SEMIMAJOR_AXIS,PERIOD,APOGEE,PERIGEE,DECAYED
53793.0,STARLINK-4728,PAYLOAD,2022-09-19 18:00:00,15.73191023,0.0001305,53.216,224.072,104.4215,324.2846,-3.8781e-05,-6.056e-05,0.0,0 STARLINK-4728,1 53793U 22111W   22262.75001157 -.00006056  00000-0 -38781-4 0  9994,2 53793  53.2160 224.0720 0001305 104.4215 324.2846 15.73191023  1304,6727.920999999999,91.534,350.664,348.908,0.0
53793.0,STARLINK-4728,PAYLOAD,2022-09-19 22:00:00,15.73184587,0.0001279,53.2162,223.2474,107.5516,185.6076,-1.4748e-05,-2.687e-05,0.0,0 STARLINK-4728,1 53793U 22111W   22262.91667824 -.00002687  00000-0 -14748-4 0  9994,2 53793  53.2162 223.2474 0001279 107.5516 185.6076 15.73184587  1324,6727.939,91.534,350.665,348.944,0.0
53793.0,STARLINK-4728,PAYLOAD,2022-09-20 14:00:01,15.7317734,8.73e-05,53.2164,219.9491,107.3231,3.6636,0.00024862,0.00034381,0.0,0 STARLINK-4728,1 53793U 22111W   22263.58334491  .00034381  00000-0  24862-3 0  9990,2 53793  53.2164 219.9491 0000873 107.3231   3.6636 15.73177340  1306,6727.96,91.534,350.412,349.237,0.0
53793.0,STARLINK-4728,PAYLOAD,2022-09-20 22:00:01,15.7323562,0.0001065999999999,53.2167,218.299,111.5171,88.4242,-0.00032241,-0.0004569,0.0,0 STARLINK-4728,1 53793U 22111W   22263.91668981 -.00045690  00000-0 -32241-3 0  9998,2 53793  53.2167 218.2990 0001066 111.5171  88.4242 15.73235620  1489,6727.794,91.531,350.376,348.941,0.0
53793.0,STARLINK-4728,PAYLOAD,2022-09-21 22:00:00,15.73192408,9.97e-05,53.2165,213.3509,117.3723,349.237,0.00032503,0.00045226,0.0,0 STARLINK-4728,1 53793U 22111W   22264.91667824  .00045226  00000-0  32503-3 0  9998,2 53793  53.2165 213.3509 0000997 117.3723 349.2370 15.73192408  1305,6727.917,91.534,350.45300000000015,349.111,0.0
53793.0,STARLINK-4728,PAYLOAD,2022-09-22 14:00:01,15.73203576,0.0001193999999999,53.2169,210.0521,106.8442,177.6616,-0.0001159999999999,-0.00016869,0.0,0 STARLINK-4728,1 53793U 22111W   22265.58334491 -.00016869  00000-0 -11600-3 0  9991,2 53793  53.2169 210.0521 0001194 106.8442 177.6616 15.73203576  1303,6727.885,91.533,350.55300000000005,348.94699999999995,0.0
53793.0,STARLINK-4728,PAYLOAD,2022-09-22 22:00:00,15.7319328,0.0001422,53.2173,208.4023,108.7164,264.7245,-1.4210999999999992e-05,-2.613e-05,0.0,0 STARLINK-4728,1 53793U 22111W   22265.91667824 -.00002613  00000-0 -14211-4 0  9991,2 53793  53.2173 208.4023 0001422 108.7164 264.7245 15.73193280  1308,6727.9140000000025,91.534,350.736,348.8230000000001,0.0
53793.0,STARLINK-4728,PAYLOAD,2022-09-23 06:00:00,15.73174441,0.0001358,53.2173,206.7547,98.8043,3.5585,0.00053354,0.00074846,0.0,0 STARLINK-4728,1 53793U 22111W   22266.25001157  .00074846  00000-0  53354-3 0  9995,2 53793  53.2173 206.7547 0001358  98.8043   3.5585 15.73174441  1857,6727.968000000003,91.535,350.747,348.9190000000001,0.0
53793.0,STARLINK-4728,PAYLOAD,2022-09-23 14:00:01,15.732228400000002,0.0001209,53.2172,205.1035,110.884,80.425,-0.00018068,-0.00025923,0.0,0 STARLINK-4728,1 53793U 22111W   22266.58334491 -.00025923  00000-0 -18068-3 0  9998,2 53793  53.2172 205.1035 0001209 110.8840  80.4250 15.73222840  1306,6727.83,91.532,350.5080000000001,348.88199999999995,0.0
53793.0,STARLINK-4728,PAYLOAD,2022-09-23 20:00:01,15.73210034,0.0001231999999999,53.2172,203.8659,120.8398,47.2394,0.000362,0.00050512,0.0,0 STARLINK-4728,1 53793U 22111W   22266.83335648  .00050512  00000-0  36200-3 0  9999,2 53793  53.2172 203.8659 0001232 120.8398  47.2394 15.73210034  1940,6727.8669999999975,91.533,350.56,348.903,0.0
53793.0,STARLINK-4728,PAYLOAD,2022-09-24 06:00:00,15.73040989,5.320000000000001e-05,53.2173,201.8072,79.566,289.3536,0.00069697,0.00097669,0.0,0 STARLINK-4728,1 53793U 22111W   22267.25001157  .00097669  00000-0  69697-3 0  9991,2 53793  53.2173 201.8072 0000532  79.5660 289.3536 15.73040989  2007,6728.349,91.542,350.57199999999995,349.856,0.0
53793.0,STARLINK-4728,PAYLOAD,2022-09-24 14:00:01,15.7305682,5.88e-05,53.2177,200.1559,96.6676,1.1003,0.00057974,0.0008103,0.0,0 STARLINK-4728,1 53793U 22111W   22267.58335648  .00081030  00000-0  57974-3 0  9992,2 53793  53.2177 200.1559 0000588  96.6676   1.1003 15.73056820  2067,6728.303000000001,91.542,350.564,349.773,0.0
53793.0,STARLINK-4728,PAYLOAD,2022-09-24 22:00:00,15.73159606,0.0001114,53.218,198.507,96.6604,89.8087,0.0018632,0.0026895,0.0,0 STARLINK-4728,1 53793U 22111W   22267.91667824  .00268950  00000-0  18632-2 0  9998,2 53793  53.2180 198.5070 0001114  96.6604  89.8087 15.73159606  1303,6728.01,91.536,350.625,349.126,0.0
53793.0,STARLINK-4728,PAYLOAD,2022-09-25 06:00:00,15.73353746,0.0001136,53.2178,196.8614,81.0841,194.3711,0.00018795,0.00026012,0.0,0 STARLINK-4728,1 53793U 22111W   22268.25001157  .00026012  00000-0  18795-3 0  9999,2 53793  53.2178 196.8614 0001136  81.0841 194.3711 15.73353746  2162,6727.456999999999,91.524,350.086,348.55800000000005,0.0
53793.0,STARLINK-4728,PAYLOAD,2022-09-25 14:00:01,15.73598691,9.24e-05,53.2178,195.2129,85.3495,279.1772,-0.0024201,-0.00332806,0.0,0 STARLINK-4728,1 53793U 22111W   22268.58334491 -.00332806  00000-0 -24201-2 0  9996,2 53793  53.2178 195.2129 0000924  85.3495 279.1772 15.73598691  2217,6726.759,91.51,349.245,348.00199999999984,0.0
53793.0,STARLINK-4728,PAYLOAD,2022-09-25 22:00:01,15.73204903,0.000127,53.2175,193.5648,87.3725,6.5241,-7.850499999999999e-06,-1.722e-05,0.0,0 STARLINK-4728,1 53793U 22111W   22268.91668981 -.00001722  00000-0 -78505-5 0  9996,2 53793  53.2175 193.5648 0001270  87.3725   6.5241 15.73204903  1306,6727.880999999999,91.533,350.601,348.892,0.0
53793.0,STARLINK-4728,PAYLOAD,2022-09-26 10:00:00,15.73253424,0.0001042999999999,53.2176,191.0845,91.1367,316.058,-0.00040166,-0.00056738,0.0,0 STARLINK-4728,1 53793U 22111W   22269.41667824 -.00056738  00000-0 -40166-3 0  9994,2 53793  53.2176 191.0845 0001043  91.1367 316.0580 15.73253424  2344,6727.743,91.53,350.31,348.906,0.0
53793.0,STARLINK-4728,PAYLOAD,2022-09-26 14:00:01,15.73220246,0.0001051,53.218,190.2587,100.39,171.2969,-0.00019186,-0.0002748,0.0,0 STARLINK-4728,1 53793U 22111W   22269.58334491 -.00027480  00000-0 -19186-3 0  9993,2 53793  53.2180 190.2587 0001051 100.3900 171.2969 15.73220246  1301,6727.837,91.532,350.41,348.995,0.0
53793.0,STARLINK-4728,PAYLOAD,2022-09-26 22:00:00,15.73199907,0.0001063,53.2182,188.6097,96.9106,263.7128,-2.6102e-05,-4.281e-05,0.0,0 STARLINK-4728,1 53793U 22111W   22269.91667824 -.00004281  00000-0 -26102-4 0  9990,2 53793  53.2182 188.6097 0001063  96.9106 263.7128 15.73199907  1315,6727.895,91.533,350.476,349.045,0.0
53793.0,STARLINK-4728,PAYLOAD,2022-09-27 06:00:00,15.73170106,0.0001143,53.2178,186.9617,86.3854,3.1782,0.00013354,0.00018138,0.0,0 STARLINK-4728,1 53793U 22111W   22270.25001157  .00018138  00000-0  13354-3 0  9998,2 53793  53.2178 186.9617 0001143  86.3854   3.1782 15.73170106  2482,6727.98,91.535,350.61400000000015,349.076,0.0
53793.0,STARLINK-4728,PAYLOAD,2022-09-27 14:00:01,15.73163842,0.0001192,53.2177,185.3104,100.8439,77.6301,0.00076912,0.00108556,0.0,0 STARLINK-4728,1 53793U 22111W   22270.58334491  .00108556  00000-0  76912-3 0  9997,2 53793  53.2177 185.3104 0001192 100.8439  77.6301 15.73163842  1302,6727.998000000001,91.535,350.665,349.061,0.0
53793.0,STARLINK-4728,PAYLOAD,2022-09-27 22:00:01,15.7325644,0.0001217,53.2176,183.662,99.7947,167.6723,0.00035123,0.0004908,0.0,0 STARLINK-4728,1 53793U 22111W   22270.91668981  .00049080  00000-0  35123-3 0  9993,2 53793  53.2176 183.6620 0001217  99.7947 167.6723 15.73256440  2589,6727.734,91.53,350.418,348.781,0.0
53793.0,STARLINK-4728,PAYLOAD,2022-09-28 14:00:01,15.7330568,0.0001077,53.2174,180.3618,105.5009,339.9626,-0.0010142999999999,-0.00141238,0.0,0 STARLINK-4728,1 53793U 22111W   22271.58334491 -.00141238  00000-0 -10143-2 0  9997,2 53793  53.2174 180.3618 0001077 105.5009 339.9626 15.73305680  2696,6727.594,91.527,350.18300000000005,348.7340000000001,0.0
53793.0,STARLINK-4728,PAYLOAD,2022-09-28 22:00:00,15.73238111,0.0001095999999999,53.2176,178.7132,102.9899,71.4616,-0.0014805,-0.0020377,0.0,0 STARLINK-4728,1 53793U 22111W   22271.91667824 -.00203770  00000-0 -14805-2 0  9992,2 53793  53.2176 178.7132 0001096 102.9899  71.4616 15.73238111  1307,6727.7869999999975,91.531,350.389,348.914,0.0
53793.0,STARLINK-4728,PAYLOAD,2022-09-29 14:00:01,15.73058169,7.390000000000001e-05,53.217,175.41400000000004,119.6378,232.4961,0.00099477,0.0014049,0.0,0 STARLINK-4728,1 53793U 22111W   22272.58334491  .00140490  00000-0  99477-3 0  9993,2 53793  53.2170 175.4140 0000739 119.6378 232.4961 15.73058169  2849,6728.3,91.541,350.662,349.667,0.0
53793.0,STARLINK-4728,PAYLOAD,2022-09-29 22:00:00,15.73183221,8.03e-05,53.2168,173.7659,105.1153,335.8035,0.00054629,0.00076695,0.0,0 STARLINK-4728,1 53793U 22111W   22272.91667824  .00076695  00000-0  54629-3 0  9994,2 53793  53.2168 173.7659 0000803 105.1153 335.8035 15.73183221  1303,6727.943,91.534,350.348,349.26800000000014,0.0
53793.0,STARLINK-4728,PAYLOAD,2022-09-30 06:00:02,15.73264659,8.609999999999999e-05,53.2163,172.1171,96.9051,73.0135,0.00010208,0.00013769,0.0,0 STARLINK-4728,1 53793U 22111W   22273.25002315  .00013769  00000-0  10208-3 0  9998,2 53793  53.2163 172.1171 0000861  96.9051  73.0135 15.73264659  2957,6727.7109999999975,91.529,350.155,348.997,0.0
53793.0,STARLINK-4728,PAYLOAD,2022-09-30 14:00:01,15.73238135,0.0001075,53.2166,170.4654,109.1101,149.7621,-5.3823e-07,-6.95e-06,0.0,0 STARLINK-4728,1 53793U 22111W   22273.58334491 -.00000695  00000-0 -53823-6 0  9996,2 53793  53.2166 170.4654 0001075 109.1101 149.7621 15.73238135  1307,6727.786,91.531,350.375,348.92800000000005,0.0
53793.0,STARLINK-4728,PAYLOAD,2022-09-30 16:00:00,15.73235447,0.0001179,53.2167,170.0528,110.0443,261.0723,4.4378e-05,5.622e-05,0.0,0 STARLINK-4728,1 53793U 22111W   22273.66667824  .00005622  00000-0  44378-4 0  9990,2 53793  53.2167 170.0528 0001179 110.0443 261.0723 15.73235447  3013,6727.794,91.531,350.452,348.866,0.0
